OBJECT_NAME,OBJECT_ID,EPOCH,MEAN_MOTION,ECCENTRICITY,INCLINATION,RA_OF_ASC_NODE,ARG_OF_PERICENTER,MEAN_ANOMALY,EPHEMERIS_TYPE,CLASSIFICATION_TYPE,NORAD_CAT_ID,ELEMENT_SET_NO,REV_AT_EPOCH,BSTAR,MEAN_MOTION_DOT,MEAN_MOTION_DDOT
GEOSCAN 3 (RS92S3),2025-155T,2026-06-05T17:18:34.126848,15.34999209,.0004976,97.4538,126.4684,199.6055,160.4998,0,U,64893,999,7909,.59663E-3,.20213E-3,0
INNOSAT 3 (RS92S0),2025-155U,2026-06-05T16:58:52.001184,15.42992480,.0004361,97.4489,127.9363,181.7017,178.4217,0,U,64894,999,7919,.92063E-3,.40646E-3,0
KNACKSAT-2,1998-067XZ,2026-06-05T02:39:22.539456,15.58840087,.00107425,51.6316,355.1703,163.6532,196.4809,0,U,67683,999,1839,.6916844E-3,.54547E-3,0
