GEOSCAN 3 (RS92S3)      
1 64893U 25155T   26156.72122832  .00020213  00000+0  59663-3 0  9994
2 64893  97.4538 126.4684 0004976 199.6055 160.4998 15.34999209 79093
INNOSAT 3 (RS92S0)      
1 64894U 25155U   26156.70754631  .00040646  00000+0  92063-3 0  9994
2 64894  97.4489 127.9363 0004361 181.7017 178.4217 15.42992480 79194
KNACKSAT-2              
1 67683U 98067XZ  26156.11067754  .00054547  00000+0  69168-3 0  9998
2 67683  51.6316 355.1703 0010742 163.6532 196.4809 15.58840087 18392
